,ASrNo,Business Name,Add,UniqueId,F_Pincode,new_Add_3,raw_address,country,words_in_address,pin_codes_found,states_found,street_names_found,landmarks_found,shop_house_nos_found,districts_found,village_or_citys_found
0,1368,N.KCAFE,"Shop No -Sn-1, Sindhiya House, Connaught Place, Central",ICL00406018,110001,"Shop No -Sn-1, Sindhiya House, Connaught Place, Central","shop no -sn-1, sindhiya house, connaught place, central",india,"['connaught place', 'central', 'shop no -sn-1', 'sindhiya house']",,,,,Shop no -sn-1,,
1,1389,Yadav tea stall,"Mohan Singh Palace, Connaught Place, Central",ICL06483572,110001,"Mohan Singh Palace, Connaught Place, Central","mohan singh palace, connaught place, central",india,"['mohan singh palace', 'connaught place', 'central']",,,,,,,
2,5672,ROOH BURGER CAFE,"A-22 Connaught Place, A-22, Connaught Place, Central Delhi",ICL14153509,110001,"A-22 Connaught Place, A-22, Connaught Place, Central Delhi","a-22 connaught place, a-22, connaught place, central delhi",india,"['connaught place', 'central delhi', 'a-22', 'a-22 connaught place']",,NCT of Delhi,,,,,
3,5685,thikhana cafe &restaurants,"Kargin Hero Kutti Basemnt, Connaught Place, New Delhii District, New Delhii",ICL38991753,110001,"Kargin Hero Kutti Basemnt, Connaught Place, New Delhi District, New Delhi","kargin hero kutti basemnt, connaught place, new delhii district, new delhii",india,"['kargin hero kutti basemnt', 'connaught place', 'new delhii district', 'new delhii']",,NCT of Delhi,,,,New delhii district,
4,7470,Umesh Tea Stall,"Kailash Building, K G Marg, Connaught Place, Central Delhi",ICL49794627,110001,"Kailash Building, K G Marg, Connaught Place, Central Delhi","kailash building, k g marg, connaught place, central delhi",india,"['kailash building', 'k g marg', 'connaught place', 'central delhi']",,NCT of Delhi,K g marg,,,,
5,575080,Grooming cafe,"S-106 2Nd Floor, V3S East Centre, Anand Vihar, East",ICL09951871,110001,"S-106 2Nd Floor, V3S East Centre, Anand Vihar, East","s-106 2nd floor, v3s east centre, anand vihar, east",india,"['v3s east centre', 'anand vihar', 's-106 2nd floor', 'east']",,,,,,,
6,5676,BHAPE DA HOTEL,"75 Municipal Market, Connaught Place, New Delhii G.P.O., New Delhii",ICL09589296,110001,"75 Municipal Market, Connaught Place, New Delhi G.P.O., New Delhi","75 municipal market, connaught place, new delhii g.p.o., new delhii",india,"['connaught place', '75 municipal market', 'new delhii g.p.o.', 'new delhii']",,NCT of Delhi,,,,,
7,5661,KWALITY RESTRAUNT,"7, Regal Building, Connaught Place, Central Delhi",ICL01966381,110001,"7, Regal Building, Connaught Place, Central Delhi","7, regal building, connaught place, central delhi",india,"['regal building', 'connaught place', 'central delhi', '7']",,NCT of Delhi,,,,,
8,5674,ROYAL RESTAURANT,"81 Municipal Market, Connaught Circus, New Delhii G.P.O., New Delhii",ICL29920375,110001,"81 Municipal Market, Connaught Circus, New Delhi G.P.O., New Delhi","81 municipal market, connaught circus, new delhii g.p.o., new delhii",india,"['81 municipal market', 'connaught circus', 'new delhii g.p.o.', 'new delhii']",,NCT of Delhi,,,,,
9,5675,NEW NATIONAL RESTAURANT,"82-83, Municipal Market, Connaught Place, C.P., Central Delhi",ICL09338229,110001,"82-83, Municipal Market, Connaught Place, C.P., Central Delhi","82-83, municipal market, connaught place, c.p., central delhi",india,"['connaught place', 'c.p.', '82-83', 'municipal market', 'central delhi']",,NCT of Delhi,,,,,
10,5677,Minar Restaurant,"L11, Connaught Circus, New Delhii G.P.O., New Delhii",ICL08041094,110001,"L11, Connaught Circus, New Delhi G.P.O., New Delhi","l11, connaught circus, new delhii g.p.o., new delhii",india,"['connaught circus', 'new delhii g.p.o.', 'new delhii', 'l11']",,NCT of Delhi,,,,,
11,5679,Mokil Restorent,"Get Directionscaunaght Place, Caunaght Place, Connaught Place, Central Delhi",ICL08167961,110001,"Connaught Place, Central Delhi","get directionscaunaght place, caunaght place, connaught place, central delhi",india,"['get directionscaunaght place', 'connaught place', 'caunaght place', 'central delhi']",,NCT of Delhi,,,,,
12,5684,Kalpana Restaurant,"Fifty9, 28, Middle Circle, Block G, Connaught Place, New Delhii District, New Delhii",ICL05280225,110001,"Fifty9, 28, Middle Circle, Block G, Connaught Place, New Delhi District, New Delhi","fifty9, 28, middle circle, block g, connaught place, new delhii district, new delhii",india,"['28', 'block g', 'new delhii district', 'middle circle', 'connaught place', 'new delhii', 'fifty9']",,NCT of Delhi,,,,New delhii district,
13,6782,ASHIF GARMENTS,"Janpath Market, Janpath, C",ICL40286411,110001,"Janpath Market, Janpath, C","janpath market, janpath, c",india,"['janpath market', 'c', 'janpath']",,,"Janpath, Janpath market",,,,
14,6789,SABITA GARMENTS,"India Gate, Janpath, Near Sabita Garments",ICL39691741,110001,"India Gate, Janpath, Near Sabita Garments","india gate, janpath, near sabita garments",india,"['near sabita garments', 'janpath', 'india gate']",,,Janpath,Near sabita garments,,,
15,6799,DAHRMEDRA GARMENTS,"Janpath Shop No, 51, Janpath Market, Janpath",ICL00104154,110001,"Janpath Shop No, 51, Janpath Market, Janpath","janpath shop no, 51, janpath market, janpath",india,"['janpath market', '51', 'janpath shop no', 'janpath']",,,"Janpath shop no, Janpath, Janpath market",,Janpath shop no,,
16,6800,NARENDER GARMENTS,"Mini Market, Janpath Connaughtplace New, Connaught Place, Central",ICL00058362,110001,"Mini Market, Janpath Connaughtplace New, Connaught Place, Central","mini market, janpath connaughtplace new, connaught place, central",india,"['janpath connaughtplace new', 'connaught place', 'mini market', 'central']",,,Janpath connaughtplace new,,,,
17,6808,NASEEM GARMENTS,"India Gate, Janpath Road, Krishi Bhawan",ICL10779101,110001,"India Gate, Janpath Road, Krishi Bhawan","india gate, janpath road, krishi bhawan",india,"['krishi bhawan', 'janpath road', 'india gate']",,,Janpath road,,,,
18,6816,UMESH GARMENTS,"Mini Market, Connaught Place New Delhii, Connaugh",ICL20274922,110001,"Mini Market, Connaught Place New Delhi, Connaught","mini market, connaught place new delhii, connaugh",india,"['connaugh', 'mini market', 'connaught place new delhii']",,NCT of Delhi,,,,,
19,6818,SHANU GARMENTS,"Mini Market, Janpath Connaught Place, New Delhii, Connaught Place, Central Delhi",ICL27192659,110001,"Mini Market, Janpath Connaught Place, New Delhi, Connaught Place, Central Delhi","mini market, janpath connaught place, new delhii, connaught place, central delhi",india,"['mini market', 'janpath connaught place', 'connaught place', 'new delhii', 'central delhi']",,NCT of Delhi,Janpath connaught place,,,,
20,6828,SANJAY GARMENTS,"Janpath, Near Sanjay Garments",ICL24685317,110001,"Janpath, Near Sanjay Garments","janpath, near sanjay garments",india,"['near sanjay garments', 'janpath']",,,Janpath,Near sanjay garments,,,
21,6846,Harsh Garments,"Janpath Market, Main Markets, Janpath S.",ICL02089234,110001,"Janpath Market, Main Markets, Janpath S.","janpath market, main markets, janpath s.",india,"['main markets', 'janpath market', 'janpath s.']",,,"Janpath s., Janpath market",,,,
22,6877,Tahir garments,"Janpath Mini Market Delhi, Janpath, Central",ICL27947171,110001,"Janpath Mini Market Delhi, Janpath, Central","janpath mini market delhi, janpath, central",india,"['central', 'janpath mini market delhi', 'janpath']",,NCT of Delhi,"Janpath mini market delhi, Janpath",,,,
23,6910,Taj medical,"Near Dr.Riyaz Clinick Fakirpura Masjid Parpeth, Malkapur, Connaught Place, New Delhii District",ICL49358255,110001,"Near Dr.Riyaz Clinick Fakirpura Masjid Parpeth, Malkapur, Connaught Place, New Delhi District","near dr.riyaz clinick fakirpura masjid parpeth, malkapur, connaught place, new delhii district",india,"['near dr.riyaz clinick fakirpura masjid parpeth', 'malkapur', 'new delhii district', 'connaught place']",,NCT of Delhi,,Near dr.riyaz clinick fakirpura masjid parpeth,,New delhii district,"Near dr.riyaz clinick fakirpura masjid parpeth, Malkapur"
24,7751,RAKESH MOBILE STORE,"L, Janpath, Central, Near Rakesh Mobile Store",ICL02249892,110001,"L, Janpath, Central, Near Rakesh Mobile Store","l, janpath, central, near rakesh mobile store",india,"['near rakesh mobile store', 'central', 'l', 'janpath']",,,Janpath,Near rakesh mobile store,,,
25,23303,SAMSAD MEDICAL STORE,"India Gate, Constitution House, Central",ICL08022339,110001,"India Gate, Constitution House, Central","india gate, constitution house, central",india,"['constitution house', 'central', 'india gate']",,,,,,,
26,23339,Wellbeing Chemists Bengali market,"Hop No 16, Municipal Market, Babar, Road, Bengali Market, New Delhii",ICL40212866,110001,"Hop No 16, Municipal Market, Babar, Road, Bengali Market, New Delhi","hop no 16, municipal market, babar, road, bengali market, new delhii",india,"['babar', 'road', 'hop no 16', 'new delhii', 'municipal market', 'bengali market']",,NCT of Delhi,Road,,,,
27,23355,AHMAD MEDICAL STORE,"India Gate, K G Marg Cannaught Place, Krishi Bhawan",ICL42329576,110001,"India Gate, K G Marg Cannaught Place, Krishi Bhawan","india gate, k g marg cannaught place, krishi bhawan",india,"['k g marg cannaught place', 'krishi bhawan', 'india gate']",,,K g marg cannaught place,,,,
28,23383,Laxmi medical and general stores,"9413228, Connaught Place Subdistrict, New Delhii",ICL03479353,110001,"9413228, Connaught Place Subdistrict, New Delhi","9413228, connaught place subdistrict, new delhii",india,"['connaught place subdistrict', '9413228', 'new delhii']",9413228,NCT of Delhi,,,,Connaught place subdistrict,
29,14059,Baba E Shopping,"A31, Palika Bazar, New Delhii G.P.O., New Delhii",ICL05602918,110001,"A31, Palika Bazar, New Delhi G.P.O., New Delhi","a31, palika bazar, new delhii g.p.o., new delhii",india,"['a31', 'palika bazar', 'new delhii g.p.o.', 'new delhii']",,NCT of Delhi,,,,,
30,1328,PBS Rolls and Street Foods,"Shop No. 5A, Regal Building Behind Cinmea, Connaught Place, Central Delhi",ICL42149007,110001,"Shop No. 5A, Regal Building Behind Cinmea, Connaught Place, Central Delhi","shop no. 5a, regal building behind cinmea, connaught place, central delhi",india,"['regal building behind cinmea', 'shop no. 5a', 'connaught place', 'central delhi']",,NCT of Delhi,,Regal building behind cinmea,Shop no. 5a,,
31,4431,TeaLentils and Co,"Sheel Tara House, Daryaganj, New Delhii",ICL05708373,110002,"Sheel Tara House, Daryaganj, New Delhi","sheel tara house, daryaganj, new delhii",india,"['sheel tara house', 'daryaganj', 'new delhii']",,NCT of Delhi,,,,,
32,5632,Manpreet tea stall,"78 Ansrl Road, Darya Ganj, Central Delhi",ICL32934588,110002,"78 Ansrl Road, Darya Ganj, Central Delhi","78 ansrl road, darya ganj, central delhi",india,"['central delhi', 'darya ganj', '78 ansrl road']",,NCT of Delhi,78 ansrl road,,,,
33,5633,Naeem Ahmed Tea Shop,"Shop No -1800, Kala Mahal Danya Ganj, Darya Ganj, Central Delhi",ICL04116354,110002,"Shop No -1800, Kala Mahal Danya Ganj, Darya Ganj, Central Delhi","shop no -1800, kala mahal danya ganj, darya ganj, central delhi",india,"['darya ganj', 'central delhi', 'shop no -1800', 'kala mahal danya ganj']",,NCT of Delhi,,,Shop no -1800,,
34,5634,Surendra tea Stall,"Mam Durga Hanuman Mandlr, Near Zeenat Mahal School, Darya Ganj, Central Delhi",ICL06489044,110002,"Mam Durga Hanuman Mandlr, Near Zeenat Mahal School, Darya Ganj, Central Delhi","mam durga hanuman mandlr, near zeenat mahal school, darya ganj, central delhi",india,"['mam durga hanuman mandlr', 'central delhi', 'near zeenat mahal school', 'darya ganj']",,NCT of Delhi,,Near zeenat mahal school,,,
35,20002,Bhola Tea Stall,"Shop No 2752, Kotla Road Near Ip Post Office, Civic Centre, New Delhii",ICL23072098,110002,"Shop No 2752, Kotla Road Near Ip Post Office, Civic Centre, New Delhi","shop no 2752, kotla road near ip post office, civic centre, new delhii",india,"['civic centre', 'kotla road near ip post office', 'shop no 2752', 'new delhii']",,NCT of Delhi,Kotla road near ip post office,Kotla road near ip post office,Shop no 2752,,
36,20011,Kishan BhadurTea Shop,"4754-23, Dariya Ganj, Civic Centre, New Delhii",ICL02628702,110002,"4754-23, Dariya Ganj, Civic Centre, New Delhi","4754-23, dariya ganj, civic centre, new delhii",india,"['civic centre', '4754-23', 'new delhii', 'dariya ganj']",,NCT of Delhi,,,,,
37,20012,Mahaveer Tea Stall,"94240-1, Ansari Road, Darya Ganj, Central",ICL04942181,110002,"94240-1, Ansari Road, Darya Ganj, Central","94240-1, ansari road, darya ganj, central",india,"['ansari road', '94240-1', 'central', 'darya ganj']",,,Ansari road,,,,
38,20021,Aniket tea shop,"Mata Sundri Road, Into Road, Minto Road, Central",ICL09804705,110002,"Mata Sundri Road, Into Road, Minto Road, Central","mata sundri road, into road, minto road, central",india,"['mata sundri road', 'into road', 'central', 'minto road']",,,"Mata sundri road, Minto road, Into road",,,,
39,20034,Arpit Tea shop,"Main Road, Dariya Ganj, Darya Ganj, Central",ICL13119613,110002,"Main Road, Dariya Ganj, Darya Ganj, Central","main road, dariya ganj, darya ganj, central",india,"['darya ganj', 'central', 'main road', 'dariya ganj']",,,Main road,,,,
40,20047,Mukesh Tea Stall,"Bal Bhaban, Vishnu Digmbararg, Civic Centre, New Delhii",ICL38997633,110002,"Bal Bhaban, Vishnu Digmbararg, Civic Centre, New Delhi","bal bhaban, vishnu digmbararg, civic centre, new delhii",india,"['civic centre', 'vishnu digmbararg', 'bal bhaban', 'new delhii']",,NCT of Delhi,,,,,
41,20049,Pawan tea shop,"Kotla Road, Ito, L.P.Estate, Central",ICL35444131,110002,"Kotla Road, Ito, L.P.Estate, Central","kotla road, ito, l.p.estate, central",india,"['l.p.estate', 'kotla road', 'ito', 'central']",,,Kotla road,,,,
42,20117,Lalit Tea Stall,"915, Ansari Market Darya Ganj, Darya Ganj, Central",ICL07451698,110002,"915, Ansari Market Darya Ganj, Darya Ganj, Central","915, ansari market darya ganj, darya ganj, central",india,"['central', 'ansari market darya ganj', '915', 'darya ganj']",,,,,,,
43,20145,Balaji Tea Stall,"Shop No.9, Ito Civic Centre, L.P.Estate, Central",ICL00560253,110002,"Shop No.9, Ito Civic Centre, L.P.Estate, Central","shop no.9, ito civic centre, l.p.estate, central",india,"['l.p.estate', 'ito civic centre', 'central', 'shop no.9']",,,,,Shop no.9,,
44,20163,Dharampal tea shop,"Mata Sundari Road, Mata Sundri Road, Civic Centre, New Delhii",ICL14822178,110002,"Mata Sundari Road, Mata Sundri Road, Civic Centre, New Delhi","mata sundari road, mata sundri road, civic centre, new delhii",india,"['civic centre', 'mata sundri road', 'new delhii', 'mata sundari road']",,NCT of Delhi,"Mata sundri road, Mata sundari road",,,,
45,20082,Noushad hotel,"3296 Delhi Gate Bazar, New Delhii, Ajmeri Gate Extn., Central",ICL25694158,110002,"3296 Delhi Gate Bazar, New Delhi, Ajmeri Gate Extn., Central","3296 delhi gate bazar, new delhii, ajmeri gate extn., central",india,"['3296 delhi gate bazar', 'central', 'ajmeri gate extn.', 'new delhii']",,NCT of Delhi,,,,,
46,2542,Moti Mahal Resturants,"3704, Netaji Subhash Marg, Daryaganj, Darya Ganj, Central",ICL07357062,110002,"3704, Netaji Subhash Marg, Daryaganj, Darya Ganj, Central","3704, netaji subhash marg, daryaganj, darya ganj, central",india,"['daryaganj', '3704', 'darya ganj', 'netaji subhash marg', 'central']",,,Netaji subhash marg,,,,
47,2547,Alam restaurant,"Shop No 26, Garya Ganj, L.P.Estate, Central Delhi",ICL06277921,110002,"Shop No 26, Garya Ganj, L.P.Estate, Central Delhi","shop no 26, garya ganj, l.p.estate, central delhi",india,"['l.p.estate', 'central delhi', 'shop no 26', 'garya ganj']",,NCT of Delhi,,,Shop no 26,,
48,20022,Prakash Restaurant,"Main Daryagang Nearthana, Daryagang, Darya Ganj, Central",ICL25509958,110002,"Main Daryagang Nearthana, Daryagang, Darya Ganj, Central","main daryagang nearthana, daryagang, darya ganj, central",india,"['central', 'main daryagang nearthana', 'daryagang', 'darya ganj']",,,,Main daryagang nearthana,,,
49,20161,MILAN RESTOURENT,"Shop No -2085, Ganj Meer Khan Asif Ali Road, Darya Ganj, Central",ICL04901248,110002,"Shop No -2085, Ganj Meer Khan Asif Ali Road, Darya Ganj, Central","shop no -2085, ganj meer khan asif ali road, darya ganj, central",india,"['shop no -2085', 'ganj meer khan asif ali road', 'central', 'darya ganj']",,,Ganj meer khan asif ali road,,Shop no -2085,,
50,4352,Surya narayan garments,"Daryaganj, Main Market, Darya Ganj, Central",ICL42690534,110002,"Daryaganj, Main Market, Darya Ganj, Central","daryaganj, main market, darya ganj, central",india,"['daryaganj', 'main market', 'central', 'darya ganj']",,,,,,,
51,4361,Sham Electronic,"Jaypee, 4842, Ansari Road, Daryaganj, Darya Ganj, Central District, New Delhii",ICL02577448,110002,"Jaypee, 4842, Ansari Road, Daryaganj, Darya Ganj, Central District, New Delhi","jaypee, 4842, ansari road, daryaganj, darya ganj, central district, new delhii",india,"['4842', 'daryaganj', 'central district', 'darya ganj', 'new delhii', 'ansari road', 'jaypee']",,NCT of Delhi,Ansari road,,,Central district,
52,4446,Elgin electronics pvt ltd,"Ground Floor, 74, Daryaganj, Darya Ganj, Central Delhi",ICL03589714,110002,"Ground Floor, 74, Daryaganj, Darya Ganj, Central Delhi","ground floor, 74, daryaganj, darya ganj, central delhi",india,"['daryaganj', 'darya ganj', '74', 'central delhi', 'ground floor']",,NCT of Delhi,,,,,
53,4447,Rajesh garments,"Darya Ganj Khucha Dikhni Rai, Khucha, Dhikni, Darya Ganj, Central",ICL43079172,110002,"Darya Ganj Khucha Dikhni Rai, Khucha, Dhikni, Darya Ganj, Central","darya ganj khucha dikhni rai, khucha, dhikni, darya ganj, central",india,"['dhikni', 'darya ganj khucha dikhni rai', 'khucha', 'darya ganj', 'central']",,,,,,,
54,4581,FM Electronics,"9966 2527 Tihara Behram Khan, Daryaganj, Darya Ganj, Central",ICL05943869,110002,"9966 2527 Tihara Behram Khan, Daryaganj, Darya Ganj, Central","9966 2527 tihara behram khan, daryaganj, darya ganj, central",india,"['daryaganj', 'darya ganj', 'central', '9966 2527 tihara behram khan']",,,,,,,
55,4582,SALEES AHMED GARMENTS,"Shop No -632, Rag Mahal Kajmel Khan, Darya Ganj, Central",ICL00976186,110002,"Shop No -632, Rag Mahal Kajmel Khan, Darya Ganj, Central","shop no -632, rag mahal kajmel khan, darya ganj, central",india,"['rag mahal kajmel khan', 'central', 'darya ganj', 'shop no -632']",,,,,Shop no -632,,
56,4601,Mueed Garments shop,"Shop No-453, Main Baza Chitli Qabar, Darya Ganj, Central",ICL22366667,110002,"Shop No-453, Main Baza Chitli Qabar, Darya Ganj, Central","shop no-453, main baza chitli qabar, darya ganj, central",india,"['main baza chitli qabar', 'shop no-453', 'central', 'darya ganj']",,,,,Shop no-453,,
57,4604,New national electronics,"3697-1 Netaji Subhash Marg, Daryaganj, Darya Ganj, Central",ICL02677459,110002,"3697-1 Netaji Subhash Marg, Daryaganj, Darya Ganj, Central","3697-1 netaji subhash marg, daryaganj, darya ganj, central",india,"['3697-1 netaji subhash marg', 'daryaganj', 'central', 'darya ganj']",,,3697-1 netaji subhash marg,,,,
58,4615,AsifGarments,"Shop No-2550, Tiraha Behram Khan, Darya Ganj, Central",ICL04460479,110002,"Shop No-2550, Tiraha Behram Khan, Darya Ganj, Central","shop no-2550, tiraha behram khan, darya ganj, central",india,"['shop no-2550', 'tiraha behram khan', 'central', 'darya ganj']",,,,,Shop no-2550,,
59,4655,Mohd Raza electronic,"95051, Mohan Birij Road, Civic Centre, New Delhii",ICL24454189,110002,"95051, Mohan Birij Road, Civic Centre, New Delhi","95051, mohan birij road, civic centre, new delhii",india,"['civic centre', '95051', 'new delhii', 'mohan birij road']",,NCT of Delhi,Mohan birij road,,,,
60,4668,Ubesh Garments Shop,"Shop No-2452, Chandni Mahal Darya Ganj, Darya Ganj, Central",ICL30908546,110002,"Shop No-2452, Chandni Mahal Darya Ganj, Darya Ganj, Central","shop no-2452, chandni mahal darya ganj, darya ganj, central",india,"['chandni mahal darya ganj', 'darya ganj', 'central', 'shop no-2452']",,,,,Shop no-2452,,
61,4672,Modern refrigeration stores,"95051-19 Netaji Subhash Marg, Daryaganj, Darya Ganj, Central",ICL09308704,110002,"95051-19 Netaji Subhash Marg, Daryaganj, Darya Ganj, Central","95051-19 netaji subhash marg, daryaganj, darya ganj, central",india,"['daryaganj', 'darya ganj', 'central', '95051-19 netaji subhash marg']",,,95051-19 netaji subhash marg,,,,
62,4673,PlusElectronics,"Shop No 1723 -1, Gali Tahesildar, Dary- 9Aganj, Behind Moti Mahal Restaurant .Delhi 2 .Civic Centre, New Delhii",ICL04959751,110002,"Shop No 1723 -1, Gali Tahesildar, Dary- 9Aganj, Behind Moti Mahal Restaurant .Delhi 2 .Civic Centre, New Delhi","shop no 1723 -1, gali tahesildar, dary- 9aganj, behind moti mahal restaurant .delhi 2 .civic centre, new delhii",india,"['gali tahesildar', 'new delhii', 'shop no 1723 -1', 'behind moti mahal restaurant .delhi 2 .civic centre', 'dary- 9aganj']",,NCT of Delhi,,Behind moti mahal restaurant .delhi 2 .civic centre,Shop no 1723 -1,,
63,4678,SameerGarments,"9881, Main Baza Chitli Qabar, Darya Ganj, Central Delhi",ICL04693797,110002,"9881, Main Baza Chitli Qabar, Darya Ganj, Central Delhi","9881, main baza chitli qabar, darya ganj, central delhi",india,"['main baza chitli qabar', 'darya ganj', 'central delhi', '9881']",,NCT of Delhi,,,,,
64,4724,Arfa garments,"Shop No -1469, Sui Walan Dariya Ganj, Darya Ganj, Central",ICL06817184,110002,"Shop No -1469, Sui Walan Dariya Ganj, Darya Ganj, Central","shop no -1469, sui walan dariya ganj, darya ganj, central",india,"['darya ganj', 'central', 'sui walan dariya ganj', 'shop no -1469']",,,,,Shop no -1469,,
65,4725,Mohd Anees Garments,"Meena Bazar, Darya Ganj, Central",ICL49528447,110002,"Meena Bazar, Darya Ganj, Central","meena bazar, darya ganj, central",india,"['meena bazar', 'central', 'darya ganj']",,,,,,,
66,4728,ChawlaElectronics,"3778, Near Over Bridge, Netaji Subhash, Marg, Daryaganjj, Darya Ganj, Central",ICL29844133,110002,"3778, Near Over Bridge, Netaji Subhash, Marg, Daryaganjj, Darya Ganj, Central","3778, near over bridge, netaji subhash, marg, daryaganjj, darya ganj, central",india,"['near over bridge', 'netaji subhash', 'central', 'darya ganj', 'marg', '3778', 'daryaganjj']",,,Marg,Near over bridge,,,
67,4729,Milanelectronics,"3783, Netaji Subhash Marg, Darya Ganj, Central",ICL41292701,110002,"3783, Netaji Subhash Marg, Darya Ganj, Central","3783, netaji subhash marg, darya ganj, central",india,"['netaji subhash marg', '3783', 'central', 'darya ganj']",,,Netaji subhash marg,,,,
68,42283,Malik Electronic,"Shop No -2590, Sar Saheya Ahamd Road, Dariya Ganj, Darya Ganj, Central",ICL09118969,110002,"Shop No -2590, Sar Saheya Ahamd Road, Dariya Ganj, Darya Ganj, Central","shop no -2590, sar saheya ahamd road, dariya ganj, darya ganj, central",india,"['dariya ganj', 'shop no -2590', 'darya ganj', 'central', 'sar saheya ahamd road']",,,Sar saheya ahamd road,,Shop no -2590,,
69,42330,Hashmi electronics,"Darya Ganj, Central, Near Hashmi Electronics",ICL30060897,110002,"Darya Ganj, Central, Near Hashmi Electronics","darya ganj, central, near hashmi electronics",india,"['near hashmi electronics', 'central', 'darya ganj']",,,,Near hashmi electronics,,,
70,42341,Reliable Refrigeration Store,"6, Netaji Subhash Marg, Daryaganj, Darya Ganj, Central",ICL40934182,110002,"6, Netaji Subhash Marg, Daryaganj, Darya Ganj, Central","6, netaji subhash marg, daryaganj, darya ganj, central",india,"['6', 'daryaganj', 'darya ganj', 'netaji subhash marg', 'central']",,,Netaji subhash marg,,,,
71,42347,Lazer Electronics,"3785, Netaji Subhash Marg, Daryaganj, Darya Ganj, Central",ICL09106943,110002,"3785, Netaji Subhash Marg, Daryaganj, Darya Ganj, Central","3785, netaji subhash marg, daryaganj, darya ganj, central",india,"['daryaganj', 'darya ganj', '3785', 'netaji subhash marg', 'central']",,,Netaji subhash marg,,,,
72,42365,Sanjeevan medical research centre pr,"924, Ansari Road, Daryaganj, Darya Ganj, Central",ICL05971361,110002,"924, Ansari Road, Daryaganj, Darya Ganj, Central","924, ansari road, daryaganj, darya ganj, central",india,"['daryaganj', 'darya ganj', 'ansari road', 'central', '924']",,,Ansari road,,,,
73,42368,P D GUPTA MEDISCAN CENTRE PVT,"970, Daryaganj, Darya Ganj, Central",ICL23269355,110002,"970, Daryaganj, Darya Ganj, Central","970, daryaganj, darya ganj, central",india,"['daryaganj', '970', 'central', 'darya ganj']",,,,,,,
74,3586,Jai jawan tea shop,"Jai Jawan Tea Shop, Lodhi Road, New Delhii",ICL02674042,110003,"Jai Jawan Tea Shop, Lodhi Road, New Delhi","jai jawan tea shop, lodhi road, new delhii",india,"['jai jawan tea shop', 'lodhi road', 'new delhii']",,NCT of Delhi,Lodhi road,,,,
75,3632,Prem pal tea,"Lodhi Road, Lodhi Cloney, Safdarjung Air Port, South",ICL03475233,110003,"Lodhi Road, Lodhi Cloney, Safdarjung Air Port, South","lodhi road, lodhi cloney, safdarjung air port, south",india,"['lodhi cloney', 'safdarjung air port', 'south', 'lodhi road']",,,Lodhi road,,,,
76,3638,Bhagwati tea,"Lodhi Garden, Lodi Cloney, Lodi Road, South",ICL07172299,110003,"Lodhi Garden, Lodi Cloney, Lodi Road, South","lodhi garden, lodi cloney, lodi road, south",india,"['lodi road', 'south', 'lodhi garden', 'lodi cloney']",,,Lodi road,,,,
77,3647,Asgartea stall,"Aliganj (South Delhi), South",ICL09339881,110003,"Aliganj (South Delhi), South","aliganj (south delhi), south",india,"['aliganj (south delhi)', 'south']",,NCT of Delhi,,,,,
78,636268,Steak House,"9138, Jorbagh Market, Jor Bagh Market, Golf Links, South Delhi",ICL35381461,110003,"9138, Jorbagh Market, Jor Bagh Market, Golf Links, South Delhi","9138, jorbagh market, jor bagh market, golf links, south delhi",india,"['jor bagh market', 'south delhi', '9138', 'golf links', 'jorbagh market']",,NCT of Delhi,,,,,
79,636302,Mittal Tea House,"A8, Main Market Lodhi Road, Pandara Road, Central Delhi",ICL23660814,110003,"A8, Main Market Lodhi Road, Pandara Road, Central Delhi","a8, main market lodhi road, pandara road, central delhi",india,"['a8', 'main market lodhi road', 'pandara road', 'central delhi']",,NCT of Delhi,"Main market lodhi road, Pandara road",,,,
80,5584,New Madras Hotel,"Shop Number 7, Khanna Market, Lodi Road, South Delhi",ICL03575933,110003,"Shop Number 7, Khanna Market, Lodi Road, South Delhi","shop number 7, khanna market, lodi road, south delhi",india,"['south delhi', 'khanna market', 'shop number 7', 'lodi road']",,NCT of Delhi,Lodi road,,Shop number 7,,
81,5603,SHRI NARAYAN HOTEL,"Kotla Mubarakpur, Aliganj (South Delhi), South Delhi",ICL07103906,110003,"Kotla Mubarakpur, Aliganj (South Delhi), South Delhi","kotla mubarakpur, aliganj (south delhi), south delhi",india,"['kotla mubarakpur', 'south delhi', 'aliganj (south delhi)']",,NCT of Delhi,,,,,Kotla mubarakpur
82,5565,Titu Resturant,"5, Mini Market 2 Lodhi Road, Pragati Vihar, South Delhi",ICL05996061,110003,"5, Mini Market 2 Lodhi Road, Pragati Vihar, South Delhi","5, mini market 2 lodhi road, pragati vihar, south delhi",india,"['pragati vihar', 'mini market 2 lodhi road', '5', 'south delhi']",,NCT of Delhi,Mini market 2 lodhi road,,,,
83,5577,Bhuj Restaurant,"Shop No. 66 A Khanna Market, Lodhi Road, Aliganj (South Delhi), South Delhi",ICL03901814,110003,"Shop No. 66 A Khanna Market, Lodhi Road, Aliganj (South Delhi), South Delhi","shop no. 66 a khanna market, lodhi road, aliganj (south delhi), south delhi",india,"['shop no. 66 a khanna market', 'aliganj (south delhi)', 'south delhi', 'lodhi road']",,NCT of Delhi,Lodhi road,,Shop no. 66 a khanna market,,
84,5597,EKTA RESTAURANT,"808, 7 Sukhdev Market, Kotla Mubarakpur, Kasturba Nagar (South Delhi), South Delhi",ICL03313022,110003,"808, 7 Sukhdev Market, Kotla Mubarakpur, Kasturba Nagar (South Delhi), South Delhi","808, 7 sukhdev market, kotla mubarakpur, kasturba nagar (south delhi), south delhi",india,"['kotla mubarakpur', 'south delhi', 'kasturba nagar (south delhi)', '7 sukhdev market', '808']",,NCT of Delhi,,,,,"Kotla mubarakpur, Kasturba nagar (south delhi)"
85,5600,Md Parwez restaurent,"Bapu Park Main Mkt, Bapu Park, Aliganj (South Delhi), South Delhi",ICL46155649,110003,"Bapu Park Main Mkt, Bapu Park, Aliganj (South Delhi), South Delhi","bapu park main mkt, bapu park, aliganj (south delhi), south delhi",india,"['bapu park', 'bapu park main mkt', 'south delhi', 'aliganj (south delhi)']",,NCT of Delhi,,,,,
86,634132,Sandhya Medicos,"Kwality Qunte Centre, Chaudhary Hardhyan9 Singh Marg, Kotla Mubarakpur, Defence Colony, South East Delhi District, New Delhi",ICL30044471,110003,"Kwality Qunte Centre, Chaudhary Hardhyan9 Singh Marg, Kotla Mubarakpur, Defence Colony, South East Delhi District, New Delhi","kwality qunte centre, chaudhary hardhyan9 singh marg, kotla mubarakpur, defence colony, south east delhi district, new delhi",india,"['kwality qunte centre', 'kotla mubarakpur', 'south east delhi district', 'new delhi', 'chaudhary hardhyan9 singh marg', 'defence colony']",,NCT of Delhi,Chaudhary hardhyan9 singh marg,,,South east delhi district,Kotla mubarakpur
87,634134,Verma Medical,"Kotala Mubarakpur, Lodi Road, South Delhi",ICL05607604,110003,"Kotala Mubarakpur, Lodi Road, South Delhi","kotala mubarakpur, lodi road, south delhi",india,"['south delhi', 'kotala mubarakpur', 'lodi road']",,NCT of Delhi,Lodi road,,,,Kotala mubarakpur
88,634138,Balaji Medicos,"943-3 Arjun Nagar, Kotla Mubarakpur, Kasturba 9 Nagar, South Delhi",ICL03276674,110003,"943-3 Arjun Nagar, Kotla Mubarakpur, Kasturba 9 Nagar, South Delhi","943-3 arjun nagar, kotla mubarakpur, kasturba 9 nagar, south delhi",india,"['kasturba 9 nagar', 'kotla mubarakpur', '943-3 arjun nagar', 'south delhi']",,NCT of Delhi,,,,,"Kasturba 9 nagar, Kotla mubarakpur, 943-3 arjun nagar"
89,634139,LIFE CARE PHARMA,"9954-4 Arjun Nagar, South Ex, Kasturba Nagar, South Delhi",ICL08426003,110003,"9954-4 Arjun Nagar, South Ex, Kasturba Nagar, South Delhi","9954-4 arjun nagar, south ex, kasturba nagar, south delhi",india,"['south delhi', '9954-4 arjun nagar', 'kasturba nagar', 'south ex']",,NCT of Delhi,,,,,"9954-4 arjun nagar, Kasturba nagar"
90,634144,Negi Homeo Pharmacy,"A-1662 6, Babu Park, C G Complex, South Delhi",ICL24241149,110003,"A-1662 6, Babu Park, C G Complex, South Delhi","a-1662 6, babu park, c g complex, south delhi",india,"['south delhi', 'c g complex', 'babu park', 'a-1662 6']",,NCT of Delhi,,,,,
91,634145,M. R. Chemist & Opticals,"941-4 Gurudwara Road, Kotla Mubarakpur, Kasturba Nagar, South Delhi",ICL03145288,110003,"941-4 Gurudwara Road, Kotla Mubarakpur, Kasturba Nagar, South Delhi","941-4 gurudwara road, kotla mubarakpur, kasturba nagar, south delhi",india,"['kotla mubarakpur', 'kasturba nagar', 'south delhi', '941-4 gurudwara road']",,NCT of Delhi,941-4 gurudwara road,,,,"Kotla mubarakpur, Kasturba nagar"
92,634146,RAWAT CHEMIST,"Bapu Park Near Mother Dairy, Bapu Park, Aliganj, South Delhi",ICL08911325,110003,"Bapu Park Near Mother Dairy, Bapu Park, Aliganj, South Delhi","bapu park near mother dairy, bapu park, aliganj, south delhi",india,"['bapu park', 'south delhi', 'aliganj', 'bapu park near mother dairy']",,NCT of Delhi,,Bapu park near mother dairy,,,
93,634149,DEV MEDICAL,"Shop No C 49, Babu Park, C G Complex, South Delhi",ICL00750999,110003,"Shop No C 49, Babu Park, C G Complex, South Delhi","shop no c 49, babu park, c g complex, south delhi",india,"['south delhi', 'c g complex', 'babu park', 'shop no c 49']",,NCT of Delhi,,,Shop no c 49,,
94,634151,Gopal Medical Store,"Shop No 737, Kotla Pillanji, C G Complex, South Delhi",ICL02506107,110003,"Shop No 737, Kotla Pillanji, C G Complex, South Delhi","shop no 737, kotla pillanji, c g complex, south delhi",india,"['south delhi', 'kotla pillanji', 'c g complex', 'shop no 737']",,NCT of Delhi,,,Shop no 737,,
95,634156,OM AYURVEDIC AND MEDICINE CE,"486, 6, Subash Market, Kotla Mubarakpur, Aliganj, South Delhi",ICL07944201,110003,"486, 6, Subash Market, Kotla Mubarakpur, Aliganj, South Delhi","486, 6, subash market, kotla mubarakpur, aliganj, south delhi",india,"['6', 'kotla mubarakpur', 'subash market', 'south delhi', 'aliganj', '486']",,NCT of Delhi,,,,,Kotla mubarakpur
96,634159,BIOAID PHARMA,"9333 Chhatarpur, Chattarpur, Safdarjung Air Port, South Delhi",ICL09347655,110003,"9333 Chhatarpur, Chattarpur, Safdarjung Air Port, South Delhi","9333 chhatarpur, chattarpur, safdarjung air port, south delhi",india,"['safdarjung air port', 'south delhi', '9333 chhatarpur', 'chattarpur']",,NCT of Delhi,,,,,"Chattarpur, 9333 chhatarpur"
97,634160,Ekta Medicos,"9808.1, Kotla Mubarakpur, Lodi Road, South Delhi",ICL04427652,110003,"9808.1, Kotla Mubarakpur, Lodi Road, South Delhi","9808.1, kotla mubarakpur, lodi road, south delhi",india,"['kotla mubarakpur', 'south delhi', '9808.1', 'lodi road']",,NCT of Delhi,Lodi road,,,,Kotla mubarakpur
98,634163,Amit Chemist,"Sachin Communication, 8772, Shri Shri Krishna9Sharma Marg, Sewa Nagar, Defence Colony, South East Delhi District, Aliganj, South Delhi",ICL02213819,110003,"Sachin Communication, 8772, Shri Shri Krishna9Sharma Marg, Sewa Nagar, Defence Colony, South East Delhi District, Aliganj, South Delhi","sachin communication, 8772, shri shri krishna9sharma marg, sewa nagar, defence colony, south east delhi district, aliganj, south delhi",india,"['shri shri krishna9sharma marg', 'sewa nagar', 'south delhi', 'south east delhi district', 'defence colony', 'sachin communication', '8772', 'aliganj']",,NCT of Delhi,Shri shri krishna9sharma marg,,,South east delhi district,Sewa nagar
99,634164,DR K P KATHURIA CHEMIST,"744, Subhash Market, Kotla Mubarakpur, Kasturba Nagar, South Delhi",ICL20570379,110003,"744, Subhash Market, Kotla Mubarakpur, Kasturba Nagar, South Delhi","744, subhash market, kotla mubarakpur, kasturba nagar, south delhi",india,"['kotla mubarakpur', '744', 'kasturba nagar', 'south delhi', 'subhash market']",,NCT of Delhi,,,,,"Kotla mubarakpur, Kasturba nagar"
100,634165,Maa Barahi Medical Store,"6Ali Ganj Kotla Mubarakpur, New Delhi, Kasturba, Nagar, South Delhi",ICL47329424,110003,"6Ali Ganj Kotla Mubarakpur, New Delhi, Kasturba, Nagar, South Delhi","6ali ganj kotla mubarakpur, new delhi, kasturba, nagar, south delhi",india,"['kasturba', 'south delhi', 'new delhi', 'nagar', '6ali ganj kotla mubarakpur']",,NCT of Delhi,,,,,"Nagar, 6ali ganj kotla mubarakpur"
101,634166,Medicare,"Shop No.6 Bk Dutt Colony Karbala Market, Lodi Road, South Delhi",ICL09652949,110003,"Shop No.6 Bk Dutt Colony Karbala Market, Lodi Road, South Delhi","shop no.6 bk dutt colony karbala market, lodi road, south delhi",india,"['south delhi', 'shop no.6 bk dutt colony karbala market', 'lodi road']",,NCT of Delhi,Lodi road,,Shop no.6 bk dutt colony karbala market,,
102,634170,Roshni Medicos,"Shop No 21Sewa Nagar Market, Aliganj, South Delhi",ICL23098956,110003,"Shop No 21Sewa Nagar Market, Aliganj, South Delhi","shop no 21sewa nagar market, aliganj, south delhi",india,"['shop no 21sewa nagar market', 'south delhi', 'aliganj']",,NCT of Delhi,,,Shop no 21sewa nagar market,,Shop no 21sewa nagar market
103,634171,Roshni Medicos,"Main Mkt Sewa Nagar, Kotla, C G Complex, South Delhi",ICL00475436,110003,"Main Mkt Sewa Nagar, Kotla, C G Complex, South Delhi","main mkt sewa nagar, kotla, c g complex, south delhi",india,"['south delhi', 'kotla', 'main mkt sewa nagar', 'c g complex']",,NCT of Delhi,,,,,Main mkt sewa nagar
104,634173,Dori Pharmacy,"Shop No. 1 B, Khanna Market, Lodi Road, South Delhi",ICL10008517,110003,"Shop No. 1 B, Khanna Market, Lodi Road, South Delhi","shop no. 1 b, khanna market, lodi road, south delhi",india,"['south delhi', 'khanna market', 'shop no. 1 b', 'lodi road']",,NCT of Delhi,Lodi road,,Shop no. 1 b,,
105,634174,Nagpal Pharmacy,"Shop No-4, Khanna Market, New Delhi, Lodi Road, South Delhi",ICL07907798,110003,"Shop No-4, Khanna Market, New Delhi, Lodi Road, South Delhi","shop no-4, khanna market, new delhi, lodi road, south delhi",india,"['lodi road', 'south delhi', 'new delhi', 'khanna market', 'shop no-4']",,NCT of Delhi,Lodi road,,Shop no-4,,
106,634175,Apollo Pharmacy - Khanna Market,"673/68, Block 6, Lodhi Colony, New Delhi, Delhi. 11 M From Parking Area Pin",ICL00216654,110003,"673/68, Block 6, Lodhi Colony, New Delhi, Delhi. 11 M From Parking Area Pin","673/68, block 6, lodhi colony, new delhi, delhi. 11 m from parking area pin",india,"['new delhi', 'lodhi colony', 'block 6', 'delhi. 11 m from parking area pin', '673/68']",,NCT of Delhi,,,,,
107,634177,Metro Chemist & Store,"Shop No 93, Khanna Market, Lodhi Colony, Pandara Road, Central Delhi",ICL01063918,110003,"Shop No 93, Khanna Market, Lodhi Colony, Pandara Road, Central Delhi","shop no 93, khanna market, lodhi colony, pandara road, central delhi",india,"['shop no 93', 'khanna market', 'lodhi colony', 'pandara road', 'central delhi']",,NCT of Delhi,Pandara road,,Shop no 93,,
108,636272,Sachdeva Store & Chemist,"64, 65, Khanna Market, Lodi Road, South Delhi",ICL00134826,110003,"64, 65, Khanna Market, Lodi Road, South Delhi","64, 65, khanna market, lodi road, south delhi",india,"['lodi road', 'south delhi', 'khanna market', '65', '64']",,NCT of Delhi,Lodi road,,,,
109,2758,Pal tea stall,"845, Bapa Nagar Karol Bagh, Karol Bagh, Central Delhi",ICL09158379,110005,"845, Bapa Nagar Karol Bagh, Karol Bagh, Central Delhi","845, bapa nagar karol bagh, karol bagh, central delhi",india,"['karol bagh', 'bapa nagar karol bagh', 'central delhi', '845']",,NCT of Delhi,,,,,Bapa nagar karol bagh
110,2769,MANOJ TEA STALL,"Ain Road, Karol Bagh, Central Delhi",ICL00446108,110005,"Ain Road, Karol Bagh, Central Delhi","ain road, karol bagh, central delhi",india,"['ain road', 'karol bagh', 'central delhi']",,NCT of Delhi,Ain road,,,,
111,2778,Aashish tea stall,"Karol Bagh Metro Station, Karol Bagh, Central Delhi",ICL06202861,110005,"Karol Bagh Metro Station, Karol Bagh, Central Delhi","karol bagh metro station, karol bagh, central delhi",india,"['karol bagh', 'karol bagh metro station', 'central delhi']",,NCT of Delhi,,,,,
112,2781,Swaran Madras cafe,"Main Faiz Road, Karol Bagh, Central Delhi, 11",ICL01841665,110005,"Main Faiz Road, Karol Bagh, Central Delhi, 11","main faiz road, karol bagh, central delhi, 11",india,"['11', 'karol bagh', 'main faiz road', 'central delhi']",,NCT of Delhi,Main faiz road,,,,
113,20742,Libas cafe,"52-45, Prabhat Road Karol Bagh Near Khalsa, College, Karol Bagh, Central",ICL29004423,110005,"52-45, Prabhat Road Karol Bagh Near Khalsa, College, Karol Bagh, Central","52-45, prabhat road karol bagh near khalsa, college, karol bagh, central",india,"['prabhat road karol bagh near khalsa', 'karol bagh', '52-45', 'college', 'central']",,,Prabhat road karol bagh near khalsa,Prabhat road karol bagh near khalsa,,,
114,32052,Manish tea stall,"997, Karol Bagh Gafar Markit, Karol Bagh, Central",ICL13306656,110005,"997, Karol Bagh Gafar Markit, Karol Bagh, Central","997, karol bagh gafar markit, karol bagh, central",india,"['karol bagh', 'central', '997', 'karol bagh gafar markit']",,,,,,,
115,8118,N H Club,"6149, Ground Floor, Gali No 5 Black No 1, Dev, Nagar, Karol Bagh, Civil Lines, Central District, New Delhii",ICL37164739,110005,"6149, Ground Floor, Gali No 5 Black No 1, Dev, Nagar, Karol Bagh, Civil Lines, Central District, New Delhi","6149, ground floor, gali no 5 black no 1, dev, nagar, karol bagh, civil lines, central district, new delhii",india,"['karol bagh', 'gali no 5 black no 1', 'civil lines', 'dev', 'central district', 'new delhii', 'nagar', 'ground floor', '6149']",,NCT of Delhi,,,,Central district,Nagar
116,2717,HOTEL DELHI DARBAR,"Shop No. 15A-26, Ajmal Khan Road Karol Bagh, Karol Bagh, Central",ICL05129295,110005,"Shop No. 15A-26, Ajmal Khan Road Karol Bagh, Karol Bagh, Central","shop no. 15a-26, ajmal khan road karol bagh, karol bagh, central",india,"['karol bagh', 'central', 'shop no. 15a-26', 'ajmal khan road karol bagh']",,,Ajmal khan road karol bagh,,Shop no. 15a-26,,
117,2723,Kerala Hotel,"Shop No 11 - 7A5, Channa Market Karol Bagh New Delhil, Karol Bagh, Central Del",ICL15699479,110005,"Shop No 11 - 7A5, Channa Market Karol Bagh New Delhil, Karol Bagh, Central Del","shop no 11 - 7a5, channa market karol bagh new delhil, karol bagh, central del",india,"['central del', 'karol bagh', 'shop no 11 - 7a5', 'channa market karol bagh new delhil']",,NCT of Delhi,,,Shop no 11 - 7a5,,
118,14279,Sisley the boutique hotel,"53, 3, D, B Gupta Road, Karol Bagh, New Delhii, Central",ICL08138295,110005,"53, 3, D, B Gupta Road, Karol Bagh, New Delhi, Central","53, 3, d, b gupta road, karol bagh, new delhii, central",india,"['karol bagh', '3', 'b gupta road', 'new delhii', '53', 'd', 'central']",,NCT of Delhi,B gupta road,,,,
119,14280,Hotel Sehej inn,"51, 3, New Market, W.E.A Near Liberty Cinema, New Rohtak Road, Karol Bagh, Central",ICL44390127,110005,"51, 3, New Market, W.E.A Near Liberty Cinema, New Rohtak Road, Karol Bagh, Central","51, 3, new market, w.e.a near liberty cinema, new rohtak road, karol bagh, central",india,"['karol bagh', 'w.e.a near liberty cinema', '51', 'new market', '3', 'central', 'new rohtak road']",,,New rohtak road,W.e.a near liberty cinema,,,
120,14282,Hotel Blue Saapphire,"3351-54, Christian Colony, Bank Street, Karol, Bagh, Central",ICL01518989,110005,"3351-54, Christian Colony, Bank Street, Karol, Bagh, Central","3351-54, christian colony, bank street, karol, bagh, central",india,"['bagh', 'karol', '3351-54', 'bank street', 'central', 'christian colony']",,,Bank street,,,,
121,14283,Hotel Sehej Continental,"53, 1, D B Gupta Road, Karol Bagh, Central",ICL14198265,110005,"53, 1, D B Gupta Road, Karol Bagh, Central","53, 1, d b gupta road, karol bagh, central",india,"['1', 'karol bagh', '53', 'central', 'd b gupta road']",,,D b gupta road,,,,
122,14291,Hotel sunshine,"1 7-B, 21, Dev Nagarbdesh Bandhu Gupta Road, Karol Bagh, Central",ICL45268737,110005,"1 7-B, 21, Dev Nagarbdesh Bandhu Gupta Road, Karol Bagh, Central","1 7-b, 21, dev nagarbdesh bandhu gupta road, karol bagh, central",india,"['karol bagh', '1 7-b', '21', 'central', 'dev nagarbdesh bandhu gupta road']",,,Dev nagarbdesh bandhu gupta road,,,,Dev nagarbdesh bandhu gupta road
123,14292,Hotel Singh international,"Karol Bagh, Central, Near Hotel Singh International",ICL05593815,110005,"Karol Bagh, Central, Near Hotel Singh International","karol bagh, central, near hotel singh international",india,"['karol bagh', 'central', 'near hotel singh international']",,,,Near hotel singh international,,,
124,14293,HOTEL PITRASHISH GROUP,"Hotel Pitrashish, New Rohtak Road, Near, Liberty Cinema, Karol Bagh, New Delhii",ICL43809781,110005,"Hotel Pitrashish, New Rohtak Road, Near, Liberty Cinema, Karol Bagh, New Delhi","hotel pitrashish, new rohtak road, near, liberty cinema, karol bagh, new delhii",india,"['near', 'karol bagh', 'hotel pitrashish', 'new delhii', 'liberty cinema', 'new rohtak road']",,NCT of Delhi,New rohtak road,Near,,,
125,14295,Hotel krishna palace,"4-36, W.E.A Saraswati Marg, Karol Bagh, Central",ICL41503319,110005,"4-36, W.E.A Saraswati Marg, Karol Bagh, Central","4-36, w.e.a saraswati marg, karol bagh, central",india,"['4-36', 'karol bagh', 'central', 'w.e.a saraswati marg']",,,W.e.a saraswati marg,,,,
126,14299,Hotel Jyoti deluxe,"4-68, W.E.A Karol Bagh, Karol Bagh, Central",ICL17992859,110005,"4-68, W.E.A Karol Bagh, Karol Bagh, Central","4-68, w.e.a karol bagh, karol bagh, central",india,"['w.e.a karol bagh', '4-68', 'central', 'karol bagh']",,,,,,,
127,14301,SURYA INTERNATIONAL HOTEL,"4-33, W.E.A Saraswati Marg, Karol Bagh, Central",ICL42436061,110005,"4-33, W.E.A Saraswati Marg, Karol Bagh, Central","4-33, w.e.a saraswati marg, karol bagh, central",india,"['4-33', 'central', 'w.e.a saraswati marg', 'karol bagh']",,,W.e.a saraswati marg,,,,
128,14305,Hotel Swati,"1 5A-56, W.E.A, Karol Bagh, Central",ICL06418875,110005,"1 5A-56, W.E.A, Karol Bagh, Central","1 5a-56, w.e.a, karol bagh, central",india,"['karol bagh', 'w.e.a', '1 5a-56', 'central']",,,,,,,
129,14306,Hotel Shiva Dx,"F-2, Deah Bandhu Gupta Road Karol Bagh, New Delhii, Karol Bagh, Central",ICL04585215,110005,"F-2, Deah Bandhu Gupta Road Karol Bagh, New Delhi, Karol Bagh, Central","f-2, deah bandhu gupta road karol bagh, new delhii, karol bagh, central",india,"['f-2', 'karol bagh', 'new delhii', 'deah bandhu gupta road karol bagh', 'central']",,NCT of Delhi,Deah bandhu gupta road karol bagh,,,,
130,14317,Hotel Kyron,"1 5A-45, Saraswati Marg, Karol Bagh, Central",ICL05865409,110005,"1 5A-45, Saraswati Marg, Karol Bagh, Central","1 5a-45, saraswati marg, karol bagh, central",india,"['1 5a-45', 'saraswati marg', 'central', 'karol bagh']",,,Saraswati marg,,,,
131,14325,Hotel UNISTAR,"3380, Christian Colony, D B Gupta Road, Karol, Road, Karol Bagh, Central",ICL06010739,110005,"3380, Christian Colony, D B Gupta Road, Karol, Road, Karol Bagh, Central","3380, christian colony, d b gupta road, karol, road, karol bagh, central",india,"['karol bagh', 'road', 'karol', '3380', 'central', 'christian colony', 'd b gupta road']",,,"Road, D b gupta road",,,,
132,14327,Hotel Rahul palace,"5-3, W.E.A Karol Bagh, Karol Bagh, Central",ICL05247258,110005,"5-3, W.E.A Karol Bagh, Karol Bagh, Central","5-3, w.e.a karol bagh, karol bagh, central",india,"['5-3', 'karol bagh', 'central', 'w.e.a karol bagh']",,,,,,,
133,14334,Hotel Good Palace,"1 5A-63, W.E.A Karol Bagh Ajmal Khan Road, Karol Bagh, Central",ICL01504685,110005,"1 5A-63, W.E.A Karol Bagh Ajmal Khan Road, Karol Bagh, Central","1 5a-63, w.e.a karol bagh ajmal khan road, karol bagh, central",india,"['1 5a-63', 'w.e.a karol bagh ajmal khan road', 'central', 'karol bagh']",,,W.e.a karol bagh ajmal khan road,,,,
134,14335,Rio Hotels India,"1 5A-61, W.E.A Karol Bagh, Karol Bagh, Central",ICL02519639,110005,"1 5A-61, W.E.A Karol Bagh, Karol Bagh, Central","1 5a-61, w.e.a karol bagh, karol bagh, central",india,"['w.e.a karol bagh', 'karol bagh', '1 5a-61', 'central']",,,,,,,
135,14338,Hotel Suncourt Corporate,"6A-67, W.E.A, Channa Market, Karol Bagh, Central",ICL42324054,110005,"6A-67, W.E.A, Channa Market, Karol Bagh, Central","6a-67, w.e.a, channa market, karol bagh, central",india,"['karol bagh', 'channa market', '6a-67', 'w.e.a', 'central']",,,,,,,
136,14343,HOTEL DELHI GRAND,"6-65, Gurudwara Road, Karol Bagh, Central",ICL06175941,110005,"6-65, Gurudwara Road, Karol Bagh, Central","6-65, gurudwara road, karol bagh, central",india,"['gurudwara road', 'karol bagh', 'central', '6-65']",,,Gurudwara road,,,,
137,14346,Hotel Jeniffer,"7A-1, Karol Bagh, Central",ICL05333378,110005,"7A-1, Karol Bagh, Central","7a-1, karol bagh, central",india,"['karol bagh', 'central', '7a-1']",,,,,,,
138,14348,Hotel Taj Princess,"1 5A-25, W.E.A Karol Bagh, Karol Bagh, Central",ICL45440666,110005,"1 5A-25, W.E.A Karol Bagh, Karol Bagh, Central","1 5a-25, w.e.a karol bagh, karol bagh, central",india,"['w.e.a karol bagh', 'karol bagh', 'central', '1 5a-25']",,,,,,,
139,14349,Hotel Suncity,"1 Ia-34, W.E.A. Channa Market, Karolbagh, Karol Bagh, Central",ICL08429736,110005,"1 Ia-34, W.E.A. Channa Market, Karolbagh, Karol Bagh, Central","1 ia-34, w.e.a. channa market, karolbagh, karol bagh, central",india,"['karol bagh', 'karolbagh', 'w.e.a. channa market', '1 ia-34', 'central']",,,,,,,
140,14352,HOTEL UNIQUE,"7A-51, W.E.A Channa Market, Karol Bagh, Central",ICL44079627,110005,"7A-51, W.E.A Channa Market, Karol Bagh, Central","7a-51, w.e.a channa market, karol bagh, central",india,"['karol bagh', 'central', 'w.e.a channa market', '7a-51']",,,,,,,
141,14372,HOTEL MOMENTS,"7A-74, W.E.A. Channa Market Karolbagh, Karol Bagh, Central",ICL38189412,110005,"7A-74, W.E.A. Channa Market Karolbagh, Karol Bagh, Central","7a-74, w.e.a. channa market karolbagh, karol bagh, central",india,"['central', 'karol bagh', 'w.e.a. channa market karolbagh', '7a-74']",,,,,,,
142,14373,Hotel Livasa Inn,"7A, 38, W.E.A, Channa Market, Karol Bagh, Central",ICL08909459,110005,"7A, 38, W.E.A, Channa Market, Karol Bagh, Central","7a, 38, w.e.a, channa market, karol bagh, central",india,"['karol bagh', '38', 'channa market', '7a', 'w.e.a', 'central']",,,,,,,
143,14374,Hotel Red Castle,"7A, 78, Channa Market, Karol Bagh, Central",ICL35926037,110005,"7A, 78, Channa Market, Karol Bagh, Central","7a, 78, channa market, karol bagh, central",india,"['karol bagh', 'channa market', '7a', '78', 'central']",,,,,,,
144,14376,Hotel shimla heritage,"7A-36, Wea Channa Market, Karol Bagh, Central",ICL04526535,110005,"7A-36, Wea Channa Market, Karol Bagh, Central","7a-36, wea channa market, karol bagh, central",india,"['7a-36', 'karol bagh', 'wea channa market', 'central']",,,,,,,
145,14378,HOTEL COSMO,"7A-40, W.E.A. Channa Market Karolbagh, Karol Bagh, Central",ICL07233768,110005,"7A-40, W.E.A. Channa Market Karolbagh, Karol Bagh, Central","7a-40, w.e.a. channa market karolbagh, karol bagh, central",india,"['karol bagh', 'w.e.a. channa market karolbagh', 'central', '7a-40']",,,,,,,
146,14381,Swati Deluxe Hotel,"1 5A-56, Hotel Swati, Karol Bagh, Central",ICL00171242,110005,"1 5A-56, Hotel Swati, Karol Bagh, Central","1 5a-56, hotel swati, karol bagh, central",india,"['karol bagh', '1 5a-56', 'central', 'hotel swati']",,,,,,,
147,14389,The Suncourt Hotel Yatri,"8A-33, W.E.A Channa Market, Karol Bagh, Karol, Bagh, Central",ICL04198904,110005,"8A-33, W.E.A Channa Market, Karol Bagh, Karol, Bagh, Central","8a-33, w.e.a channa market, karol bagh, karol, bagh, central",india,"['karol bagh', '8a-33', 'bagh', 'w.e.a channa market', 'karol', 'central']",,,,,,,
148,14391,Hotel Sunstar Heights,"8A-41, W.E.A Channa Market, Karol Bagh, Karol, Bagh, Central",ICL04460808,110005,"8A-41, W.E.A Channa Market, Karol Bagh, Karol, Bagh, Central","8a-41, w.e.a channa market, karol bagh, karol, bagh, central",india,"['karol bagh', '8a-41', 'bagh', 'karol', 'w.e.a channa market', 'central']",,,,,,,
149,14392,Hotel Grand imperial,"8-12-13, Wea Abdul Aziz Road, New Delhii, Karol, Bagh, Central",ICL04993412,110005,"8-12-13, Wea Abdul Aziz Road, New Delhi, Karol, Bagh, Central","8-12-13, wea abdul aziz road, new delhii, karol, bagh, central",india,"['bagh', 'karol', 'new delhii', '8-12-13', 'central', 'wea abdul aziz road']",,NCT of Delhi,Wea abdul aziz road,,,,
150,14398,Hotel Citi International,"Hotel City International Premium, 21, Shri, Kishan Das Marg, Block 8, Karol Bagh, Karol, Bagh, Central District, New Delhii",ICL03113364,110005,"Hotel City International Premium, 21, Shri, Kishan Das Marg, Block 8, Karol Bagh, Karol, Bagh, Central District, New Delhi","hotel city international premium, 21, shri, kishan das marg, block 8, karol bagh, karol, bagh, central district, new delhii",india,"['karol bagh', 'bagh', 'block 8', '21', 'shri', 'karol', 'central district', 'new delhii', 'kishan das marg', 'hotel city international premium']",,NCT of Delhi,Kishan das marg,,,Central district,Hotel city international premium
151,14400,Hotel Kingston Park,"8-5 W.E.A., Karolbagh, Near Metro Pillar 88, Karol Bagh, Central",ICL05973711,110005,"8-5 W.E.A., Karolbagh, Near Metro Pillar 88, Karol Bagh, Central","8-5 w.e.a., karolbagh, near metro pillar 88, karol bagh, central",india,"['karol bagh', '8-5 w.e.a.', 'karolbagh', 'near metro pillar 88', 'central']",,,,Near metro pillar 88,,,
152,14406,Hotel lavista,"Elahi Bux Road, Bar Shala, Karol Bagh, Central",ICL03677065,110005,"Elahi Bux Road, Bar Shala, Karol Bagh, Central","elahi bux road, bar shala, karol bagh, central",india,"['karol bagh', 'elahi bux road', 'central', 'bar shala']",,,Elahi bux road,,,,
153,14408,Hotel fortuner,"943, St No. 3-4, Main Faiz Road, Karol Bagh, Central",ICL02646601,110005,"943, St No. 3-4, Main Faiz Road, Karol Bagh, Central","943, st no. 3-4, main faiz road, karol bagh, central",india,"['karol bagh', 'main faiz road', 'central', '943', 'st no. 3-4']",,,Main faiz road,,,,
154,22927,Chhotelal belt wale,"Karol Bagh, Central, Near Chhotelal Belt Wale",ICL08925294,110005,"Karol Bagh, Central, Near Chhotelal Belt Wale","karol bagh, central, near chhotelal belt wale",india,"['near chhotelal belt wale', 'karol bagh', 'central']",,,,Near chhotelal belt wale,,,
155,2681,Mohit Restroant,Shop No 164 Jaffer Market S O Central,ICL06953463,110005,Shop No 164 Jaffer Market S O Central,shop no 164 jaffer market s o central,india,['shop no 164 jaffer market s o central'],,,,,Shop no 164 jaffer market s o central,,
156,32004,Azad Restaurant,"9- 6603, Gali No-4 Dev Nagar Karol Bagh, Karol Bagh, Central",ICL09080905,110005,"9- 6603, Gali No-4 Dev Nagar Karol Bagh, Karol Bagh, Central","9- 6603, gali no-4 dev nagar karol bagh, karol bagh, central",india,"['gali no-4 dev nagar karol bagh', 'karol bagh', '9- 6603', 'central']",,,,,,,Gali no-4 dev nagar karol bagh
157,6209,Same Electronics,"93591, Gali No 11, Regharpura, Karol Bagh",ICL00297008,110005,"93591, Gali No 11, Regharpura, Karol Bagh","93591, gali no 11, regharpura, karol bagh",india,"['karol bagh', 'regharpura', 'gali no 11', '93591']",,,,,,,Regharpura
158,6222,Kannu Electronic,"936-3083, Beadon Pura Karol Bagh, Karol Bagh",ICL46251791,110005,"936-3083, Beadon Pura Karol Bagh, Karol Bagh","936-3083, beadon pura karol bagh, karol bagh",india,"['936-3083', 'beadon pura karol bagh', 'karol bagh']",,,,,,,Beadon pura karol bagh
159,6226,Maa Gulo Electronic,"93075-36, Beadon Pura Karol Bagh, Karol Bagh",ICL02318852,110005,"93075-36, Beadon Pura Karol Bagh, Karol Bagh","93075-36, beadon pura karol bagh, karol bagh",india,"['beadon pura karol bagh', '93075-36', 'karol bagh']",,,,,,,Beadon pura karol bagh
160,6238,Shanti Electronics,"916-326-H, Bapa Nagar Karol Bagh, Karol Bagh",ICL04974952,110005,"916-326-H, Bapa Nagar Karol Bagh, Karol Bagh","916-326-h, bapa nagar karol bagh, karol bagh",india,"['bapa nagar karol bagh', '916-326-h', 'karol bagh']",,,,,,,Bapa nagar karol bagh
161,6242,Khandelwal Electronics,"928-3935, Padam Singh Road Karol Bagh, Karol Bagh",ICL05114895,110005,"928-3935, Padam Singh Road Karol Bagh, Karol Bagh","928-3935, padam singh road karol bagh, karol bagh",india,"['karol bagh', '928-3935', 'padam singh road karol bagh']",,,Padam singh road karol bagh,,,,
162,6339,New Sodhi electronics,"Shop No 107 A, Mcd Market Karol Bagh, Karol Bagh",ICL16946166,110005,"Shop No 107 A, Mcd Market Karol Bagh, Karol Bagh","shop no 107 a, mcd market karol bagh, karol bagh",india,"['mcd market karol bagh', 'shop no 107 a', 'karol bagh']",,,,,Shop no 107 a,,
163,6372,V.K ELECTRONICS,"Shop. 35-B2, Ghaffar Market Karol Bagh, Karol Bagh",ICL05809605,110005,"Shop. 35-B2, Ghaffar Market Karol Bagh, Karol Bagh","shop. 35-b2, ghaffar market karol bagh, karol bagh",india,"['ghaffar market karol bagh', 'shop. 35-b2', 'karol bagh']",,,,,,,
164,7874,Siddhivinayak Medicentre,"732/33, Siddhivinayak Medicentre, Gali, No-22, Faiz Road, Karol Bagh, New Delhii",ICL01623757,110005,"732/33, , Gali, No-22, Faiz Road, Karol Bagh, New Delhi","732/33, siddhivinayak medicentre, gali, no-22, faiz road, karol bagh, new delhii",india,"['karol bagh', 'new delhii', 'no-22', 'faiz road', 'gali', '732/33', 'siddhivinayak medicentre']",,NCT of Delhi,Faiz road,,,,
165,7879,Sani Medicos,"4930-40, Regar Pura Karol Bagh, Karol Bagh, Centra",ICL26093239,110005,"4930-40, Regar Pura Karol Bagh, Karol Bagh, Centra","4930-40, regar pura karol bagh, karol bagh, centra",india,"['centra', '4930-40', 'regar pura karol bagh', 'karol bagh']",,,,,,,Regar pura karol bagh
166,7929,Muskan Medicos,"6-79, W.Ema Gurudwara Road, Karol Bagh S.",ICL32880321,110005,"6-79, W.Ema Gurudwara Road, Karol Bagh S.","6-79, w.ema gurudwara road, karol bagh s.",india,"['w.ema gurudwara road', '6-79', 'karol bagh s.']",,,W.ema gurudwara road,,,,
167,7945,Shri Baba Sai Medicos,"9052&53 Esat Park Road, 9, Karol Bagh, New Delhii",ICL08367089,110005,"9052&53 Esat Park Road, 9, Karol Bagh, New Delhi","9052&53 esat park road, 9, karol bagh, new delhii",india,"['9052&53 esat park road', 'karol bagh', '9', 'new delhii']",,NCT of Delhi,9052&53 esat park road,,,,
168,8116,S.K.GARMENTS,"Karol Bagh, Near S.K.Garments",ICL34063008,110005,"Karol Bagh, Near S.K.Garments","karol bagh, near s.k.garments",india,"['karol bagh', 'near s.k.garments']",,,,Near s.k.garments,,,
169,20675,Arun garments,"Kb, New Delhii, Near Arun Garments",ICL09440877,110005,"Kb, New Delhi, Near Arun Garments","kb, new delhii, near arun garments",india,"['kb', 'new delhii', 'near arun garments']",,NCT of Delhi,,Near arun garments,,,
170,20685,Sad garments,"Karol Bagh, Naiwal, New Delhii",ICL41596464,110005,"Karol Bagh, Naiwal, New Delhi","karol bagh, naiwal, new delhii",india,"['naiwal', 'karol bagh', 'new delhii']",,NCT of Delhi,,,,,
171,20735,Margoob Garments,"Kb, Kn, Karol Bagh, Central",ICL33820006,110005,"Kb, Kn, Karol Bagh, Central","kb, kn, karol bagh, central",india,"['kb', 'kn', 'central', 'karol bagh']",,,,,,,
172,20769,Mk garments,"Karol Bagh, Central, Near Mk Garments",ICL38598432,110005,"Karol Bagh, Central, Near Mk Garments","karol bagh, central, near mk garments",india,"['karol bagh', 'central', 'near mk garments']",,,,Near mk garments,,,
173,20781,Pankaj Garments shop,"Karol Bagh, Central, Near Pankaj Garments Shop",ICL39118564,110005,"Karol Bagh, Central, Near Pankaj Garments Shop","karol bagh, central, near pankaj garments shop",india,"['karol bagh', 'central', 'near pankaj garments shop']",,,,Near pankaj garments shop,,,
174,20884,Sandeep garments,"936- 3069 Beadonpura Karol Bagh, Karol Bagh, Central Delhi",ICL35445793,110005,"936- 3069 Beadonpura Karol Bagh, Karol Bagh, Central Delhi","936- 3069 beadonpura karol bagh, karol bagh, central delhi",india,"['karol bagh', '936- 3069 beadonpura karol bagh', 'central delhi']",,NCT of Delhi,,,,,936- 3069 beadonpura karol bagh
175,20902,Sharma Garments,"Kb, Karol Bagh, Central, Near Sharma Garments",ICL20982165,110005,"Kb, Karol Bagh, Central, Near ","kb, karol bagh, central, near sharma garments",india,"['kb', 'near sharma garments', 'karol bagh', 'central']",,,,Near sharma garments,,,
176,20950,Masrul garments,"Regar Pura, Karol Bagh, Near Masrul Garments",ICL44995044,110005,"Regar Pura, Karol Bagh, Near Masrul Garments","regar pura, karol bagh, near masrul garments",india,"['regar pura', 'near masrul garments', 'karol bagh']",,,,Near masrul garments,,,Regar pura
177,20964,Rick Man Garments,"Gali No 75 Reghar Pura, Tank Road, Karol Bagh, Central",ICL08201107,110005,"Gali No 75 Reghar Pura, Tank Road, Karol Bagh, Central","gali no 75 reghar pura, tank road, karol bagh, central",india,"['tank road', 'karol bagh', 'central', 'gali no 75 reghar pura']",,,Tank road,,,,Gali no 75 reghar pura
178,20965,Ram lal garments,"997, Gaffar Market Karol Bagh, Karol Bagh",ICL32026947,110005,"997, Gaffar Market Karol Bagh, Karol Bagh","997, gaffar market karol bagh, karol bagh",india,"['karol bagh', 'gaffar market karol bagh', '997']",,,,,,,
179,20966,Dipansu garments,"964, Tank Road Karol Bagh, Karol Bagh",ICL14921147,110005,"964, Tank Road Karol Bagh, Karol Bagh","964, tank road karol bagh, karol bagh",india,"['tank road karol bagh', 'karol bagh', '964']",,,Tank road karol bagh,,,,
180,20970,GULBAR GARMENTS,"Karol Bagh, Central, Near Gulbar Garments",ICL03518743,110005,"Karol Bagh, Central, Near Gulbar Garments","karol bagh, central, near gulbar garments",india,"['karol bagh', 'central', 'near gulbar garments']",,,,Near gulbar garments,,,
181,20987,Arun garments,"Karol Bagh, Near Arun Garments",ICL05588529,110005,"Karol Bagh, Near Arun Garments","karol bagh, near arun garments",india,"['karol bagh', 'near arun garments']",,,,Near arun garments,,,
182,32191,Balis Research pharma,"920 B-3, D B Gupta Road, Karol Bagh, Central",ICL04263643,110005,"920 B-3, D B Gupta Road, Karol Bagh, Central","920 b-3, d b gupta road, karol bagh, central",india,"['920 b-3', 'karol bagh', 'central', 'd b gupta road']",,,D b gupta road,,,,
183,32198,Raman Medical Store,"6033_Block, Arya Samaj Roda, Desh Bandhu Gupta Road, Central",ICL18477227,110005,"6033_Block, Arya Samaj Roda, Desh Bandhu Gupta Road, Central","6033_block, arya samaj roda, desh bandhu gupta road, central",india,"['desh bandhu gupta road', 'central', '6033_block', 'arya samaj roda']",,,Desh bandhu gupta road,,,,
184,32202,Shakun Medicos,"Shakun Medicos, 2/6099, Padam Singh Road, Dev Nagar, Karol Bagh, New Delhii 110005, New Delhii",ICL03547179,110005,"2/6099, Padam Singh Road, Dev Nagar, Karol Bagh, New Delhi 110005, New Delhi","shakun medicos, 2/6099, padam singh road, dev nagar, karol bagh, new delhii 110005, new delhii",india,"['karol bagh', '2/6099', 'shakun medicos', 'dev nagar', 'new delhii', 'new delhii 110005', 'padam singh road']",110005,NCT of Delhi,Padam singh road,,,,Dev nagar
185,32213,A. B Mediocos,"916-1491, Bapa Nagar Sabji Mandi, Karol Bagh, Central",ICL01739474,110005,"916-1491, Bapa Nagar Sabji Mandi, Karol Bagh, Central","916-1491, bapa nagar sabji mandi, karol bagh, central",india,"['karol bagh', 'central', '916-1491', 'bapa nagar sabji mandi']",,,,,,,Bapa nagar sabji mandi
186,32225,JMD MEDICOS,"Anand Parvat, Militry Road, Anand Parbat Indl. Area, Central",ICL35710088,110005,"Anand Parvat, Militry Road, Anand Parbat Indl. Area, Central","anand parvat, militry road, anand parbat indl. area, central",india,"['anand parvat', 'militry road', 'central', 'anand parbat indl. area']",,,Militry road,,,,
187,32236,Jai Mata Medicos,"9125, Saray Rohilaa, Anand Parbat, Central",ICL00239861,110005,"9125, Saray Rohilaa, Anand Parbat, Central","9125, saray rohilaa, anand parbat, central",india,"['saray rohilaa', 'anand parbat', 'central', '9125']",,,,,,,
188,32239,MOUNT ERA PHARMACY,"6A-69, W. E. A. Karol Bagh, Karol Bagh, Central",ICL09454549,110005,"6A-69, W. E. A. Karol Bagh, Karol Bagh, Central","6a-69, w. e. a. karol bagh, karol bagh, central",india,"['central', 'karol bagh', '6a-69', 'w. e. a. karol bagh']",,,,,,,
189,32246,ARJUN MEDICAL,"914 Chana Market, Karol Bagh, Anand Parbat, Central",ICL00736604,110005,"914 Chana Market, Karol Bagh, Anand Parbat, Central","914 chana market, karol bagh, anand parbat, central",india,"['karol bagh', 'anand parbat', 'central', '914 chana market']",,,,,,,
190,32247,Oberai Medical & General Store,"914A -22, W.E.A Karol Bagh, Karol Bagh, Central",ICL27859631,110005,"914A -22, W.E.A Karol Bagh, Karol Bagh, Central","914a -22, w.e.a karol bagh, karol bagh, central",india,"['w.e.a karol bagh', 'karol bagh', 'central', '914a -22']",,,,,,,
191,32250,Life Care Medicos,"98614-14, Ratan Nagar, Gaushala Road, Karol Bagh, Central",ICL40404352,110005,"98614-14, Ratan Nagar, Gaushala Road, Karol Bagh, Central","98614-14, ratan nagar, gaushala road, karol bagh, central",india,"['karol bagh', 'ratan nagar', '98614-14', 'gaushala road', 'central']",,,Gaushala road,,,,Ratan nagar
192,32257,SUPER PHARMACY,"Karol Bagh, Gaffar Market, Central",ICL22569289,110005,"Karol Bagh, Gaffar Market, Central","karol bagh, gaffar market, central",india,"['karol bagh', 'gaffar market', 'central']",,,,,,,
193,32259,Batra Medi Center,"Batra Medi Center, 8611, Gali Number, 13, Sidipura, Karol Bagh, Pahar Ganj, Central District, New Delhii",ICL35286113,110005,"8611, Gali Number, 13, Sidipura, Karol Bagh, Pahar Ganj, Central District, New Delhi","batra medi center, 8611, gali number, 13, sidipura, karol bagh, pahar ganj, central district, new delhii",india,"['karol bagh', 'sidipura', '13', 'pahar ganj', 'central district', 'new delhii', 'gali number', 'batra medi center', '8611']",,NCT of Delhi,,,,Central district,Sidipura
194,32260,Narender medical store,"3637, Phad Gunj, Karol Bagh, Central",ICL00484822,110005,"3637, Phad Gunj, Karol Bagh, Central","3637, phad gunj, karol bagh, central",india,"['phad gunj', 'karol bagh', '3637', 'central']",,,,,,,
195,23176,Red Bar Restaurant,"95211, Sn Marg Near Ajmeri Gate, Delhi Sadar Bazar, North",ICL08886836,110006,"95211, Sn Marg Near Ajmeri Gate, Delhi Sadar Bazar, North","95211, sn marg near ajmeri gate, delhi sadar bazar, north",india,"['north', '95211', 'delhi sadar bazar', 'sn marg near ajmeri gate']",,NCT of Delhi,Sn marg near ajmeri gate,Sn marg near ajmeri gate,,,
196,13428,Usman cyber cafe,"Masjid Sang E Mar Mar Wali, Hauz Qazi, Chandni Chowk Area, Darya Ganj, Central, District, New Delhii",ICL06872751,110006,"Masjid Sang E Mar Mar Wali, Hauz Qazi, Chandni Chowk Area, Darya Ganj, Central, District, New Delhi","masjid sang e mar mar wali, hauz qazi, chandni chowk area, darya ganj, central, district, new delhii",india,"['hauz qazi', 'darya ganj', 'masjid sang e mar mar wali', 'district', 'chandni chowk area', 'new delhii', 'central']",,NCT of Delhi,,,,District,
197,23241,Muktar Tea Stall,"9182- 7, Maszid Tewar Khan Naya Bans, Hauz Qazi, Central",ICL19315329,110006,"9182- 7, Maszid Tewar Khan Naya Bans, Hauz Qazi, Central","9182- 7, maszid tewar khan naya bans, hauz qazi, central",india,"['maszid tewar khan naya bans', '9182- 7', 'central', 'hauz qazi']",,,,,,,
198,23271,Harish Chand Tea Stall,"Shop No.1827, Jamua Bazaar Hanuman, Mandirold Delhi, Delhi G.P.O., North Delhi",ICL04456804,110006,"Shop No.1827, Jamua Bazaar Hanuman, Mandirold Delhi, Delhi G.P.O., North Delhi","shop no.1827, jamua bazaar hanuman, mandirold delhi, delhi g.p.o., north delhi",india,"['mandirold delhi', 'jamua bazaar hanuman', 'shop no.1827', 'north delhi', 'delhi g.p.o.']",,NCT of Delhi,,,Shop no.1827,,
